NORAD_CAT_ID,OBJECT_NAME,OBJECT_TYPE,EPOCH,MEAN_MOTION,ECCENTRICITY,INCLINATION,RA_OF_ASC_NODE,ARG_OF_PERICENTER,MEAN_ANOMALY,BSTAR,MEAN_MOTION_DOT,MEAN_MOTION_DDOT,TLE_LINE0,TLE_LINE1,TLE_LINE2,SEMIMAJOR_AXIS,PERIOD,APOGEE,PERIGEE,DECAYED
55315.0,STARLINK-4623,PAYLOAD,2024-02-05 12:30:38,14.98332232,0.0002767,70.0018,148.6896,260.5302,99.5544,-2.6616e-05,-4.11e-06,0.0,0 STARLINK-4623,1 55315U 23010AY  24036.52128120 -.00000411  00000-0 -26616-4 0  9994,2 55315  70.0018 148.6896 0002767 260.5302  99.5544 14.98332232 58656,6950.186,96.107,573.974,570.128,0.0
55315.0,STARLINK-4623,PAYLOAD,2024-02-05 14:06:46,14.98331945,0.0002878,70.0018,148.522,264.7136,95.3695,-4.2915e-06,-1.44e-06,0.0,0 STARLINK-4623,1 55315U 23010AY  24036.58804087 -.00000144  00000-0 -42915-5 0  9997,2 55315  70.0018 148.5220 0002878 264.7136  95.3695 14.98331945 58954,6950.187,96.107,574.052,570.052,0.0
55315.0,STARLINK-4623,PAYLOAD,2024-02-05 17:19:02,14.98332466,0.0002868,70.0017,148.1851,265.4165,94.6666,1.4489e-06,-7.6e-07,0.0,0 STARLINK-4623,1 55315U 23010AY  24036.72156015 -.00000076  00000-0  14489-5 0  9992,2 55315  70.0017 148.1851 0002868 265.4165  94.6666 14.98332466 58979,6950.185,96.107,574.044,570.057,0.0
55315.0,STARLINK-4623,PAYLOAD,2024-02-06 14:08:47,14.98331241,0.0002863,70.0014,145.9951,267.8801,92.203,-1.5828e-05,-2.82e-06,0.0,0 STARLINK-4623,1 55315U 23010AY  24037.58944121 -.00000282  00000-0 -15828-4 0  9997,2 55315  70.0014 145.9951 0002863 267.8801  92.2030 14.98331241 59105,6950.189,96.107,574.044,570.064,0.0
55315.0,STARLINK-4623,PAYLOAD,2024-02-06 17:21:03,14.9833461,0.0002795,70.0016,145.659,266.2982,93.7857,2.5199e-05,2.08e-06,0.0,0 STARLINK-4623,1 55315U 23010AY  24037.72295758  .00000208  00000-0  25199-4 0  9996,2 55315  70.0016 145.6590 0002795 266.2982  93.7857 14.98334610 58835,6950.179,96.107,573.986,570.101,0.0
55315.0,STARLINK-4623,PAYLOAD,2024-02-07 12:34:39,14.98393813,0.0002355,70.002,143.6401,237.7182,122.3749,-0.0010827,-0.00013008,0.0,0 STARLINK-4623,1 55315U 23010AY  24038.52407006 -.00013008  00000-0 -10827-2 0  9990,2 55315  70.0020 143.6401 0002355 237.7182 122.3749 14.98393813 58958,6949.996,96.103,573.497,570.224,0.0
55315.0,STARLINK-4623,PAYLOAD,2024-02-07 14:10:48,14.98344407,0.000221,70.0015,143.4714,239.5099,120.5842,-0.00026455,-3.249e-05,0.0,0 STARLINK-4623,1 55315U 23010AY  24038.59083743 -.00003249  00000-0 -26455-3 0  9996,2 55315  70.0015 143.4714 0002210 239.5099 120.5842 14.98344407 59257,6950.148,96.106,573.549,570.477,0.0
55315.0,STARLINK-4623,PAYLOAD,2024-02-07 17:23:03,14.98389868,0.0002334,70.002,143.1355,243.2802,116.8118,-0.0010369,-0.00012462,0.0,0 STARLINK-4623,1 55315U 23010AY  24038.72434511 -.00012462  00000-0 -10369-2 0  9997,2 55315  70.0020 143.1355 0002334 243.2802 116.8118 14.98389868 59278,6950.008,96.103,573.495,570.251,0.0
55315.0,STARLINK-4623,PAYLOAD,2024-02-07 23:47:36,14.98345059,0.0002707,70.0023,142.4608,270.5324,89.5525,-0.00029049,-3.559e-05,0.0,0 STARLINK-4623,1 55315U 23010AY  24038.99139688 -.00003559  00000-0 -29049-3 0  9996,2 55315  70.0023 142.4608 0002707 270.5324  89.5525 14.98345059 59025,6950.146,96.106,573.893,570.13,0.0
55315.0,STARLINK-4623,PAYLOAD,2024-02-08 11:00:33,14.98326734,0.0002835,70.0013,141.2825,267.3763,92.7071,-5.0192e-06,-1.53e-06,0.0,0 STARLINK-4623,1 55315U 23010AY  24039.45872198 -.00000153  00000-0 -50192-5 0  9990,2 55315  70.0013 141.2825 0002835 267.3763  92.7071 14.98326734 59093,6950.203,96.107,574.038,570.098,0.0
55315.0,STARLINK-4623,PAYLOAD,2024-02-08 14:12:49,14.98328273,0.0002771,70.0015,140.9462,267.3904,92.6937,1.6664e-05,1.06e-06,0.0,0 STARLINK-4623,1 55315U 23010AY  24039.59224054  .00000106  00000-0  16664-4 0  9998,2 55315  70.0015 140.9462 0002771 267.3904  92.6937 14.98328273 59409,6950.198,96.107,573.989,570.137,0.0
55315.0,STARLINK-4623,PAYLOAD,2024-02-08 15:48:57,14.9832921,0.0002606,70.0017,140.7777,264.5638,95.5223,1.4583e-05,8.1e-07,0.0,0 STARLINK-4623,1 55315U 23010AY  24039.65900013  .00000081  00000-0  14583-4 0  9991,2 55315  70.0017 140.7777 0002606 264.5638  95.5223 14.98329210 59411,6950.195,96.107,573.872,570.249,0.0
55315.0,STARLINK-4623,PAYLOAD,2024-02-09 11:02:34,14.9832863,0.0002708,70.0015,138.7591,260.3785,99.7068,8.5079e-06,9e-08,0.0,0 STARLINK-4623,1 55315U 23010AY  24040.46011974  .00000009  00000-0  85079-5 0  9990,2 55315  70.0015 138.7591 0002708 260.3785  99.7068 14.98328630 59249,6950.197,96.107,573.944,570.18,0.0
55315.0,STARLINK-4623,PAYLOAD,2024-02-09 14:14:50,14.98328424,0.0002771,70.0013,138.4223,261.9103,98.1742,2.0607e-05,1.53e-06,0.0,0 STARLINK-4623,1 55315U 23010AY  24040.59363957  .00000153  00000-0  20607-4 0  9990,2 55315  70.0013 138.4223 0002771 261.9103  98.1742 14.98328424 59554,6950.198,96.107,573.989,570.137,0.0
55315.0,STARLINK-4623,PAYLOAD,2024-02-10 11:04:35,14.98323932,0.000277,70.001,136.234,266.9576,93.1266,-2.9145e-05,-4.41e-06,0.0,0 STARLINK-4623,1 55315U 23010AY  24041.46152520 -.00000441  00000-0 -29145-4 0  9997,2 55315  70.0010 136.2340 0002770 266.9576  93.1266 14.98323932 59392,6950.212,96.107,574.002,570.151,0.0
55315.0,STARLINK-4623,PAYLOAD,2024-02-10 14:16:51,14.98325506,0.0002785,70.0008,135.8965,265.6025,94.4816,-3.7226e-05,-5.37e-06,0.0,0 STARLINK-4623,1 55315U 23010AY  24041.59504467 -.00000537  00000-0 -37226-4 0  9997,2 55315  70.0008 135.8965 0002785 265.6025  94.4816 14.98325506 59707,6950.207,96.107,574.007,570.136,0.0
55315.0,STARLINK-4623,PAYLOAD,2024-02-10 15:52:59,14.98326485,0.0002785,70.0009,135.7284,265.8659,94.2181,-2.578e-05,-4.01e-06,0.0,0 STARLINK-4623,1 55315U 23010AY  24041.66180389 -.00000401  00000-0 -25780-4 0  9990,2 55315  70.0009 135.7284 0002785 265.8659  94.2181 14.98326485 59717,6950.204,96.107,574.004,570.133,0.0
55315.0,STARLINK-4623,PAYLOAD,2024-02-11 11:06:36,14.98334082,0.000285,70.0007,133.7087,266.0496,94.0338,4.3662e-05,4.28e-06,0.0,0 STARLINK-4623,1 55315U 23010AY  24042.46291691  .00000428  00000-0  43662-4 0  9994,2 55315  70.0007 133.7087 0002850 266.0496  94.0338 14.98334082 59544,6950.18,96.107,574.026,570.064,0.0
55315.0,STARLINK-4623,PAYLOAD,2024-02-11 14:18:51,14.98336645,0.0002813,70.0007,133.3719,265.4802,94.6036,7.4606e-05,7.97e-06,0.0,0 STARLINK-4623,1 55315U 23010AY  24042.59643399  .00000797  00000-0  74606-4 0  9995,2 55315  70.0007 133.3719 0002813 265.4802  94.6036 14.98336645 59857,6950.172,96.107,573.992,570.082,0.0
55315.0,STARLINK-4623,PAYLOAD,2024-02-11 15:54:59,14.98340945,0.0002792,70.0008,133.2037,265.5868,94.4972,0.00012157,1.358e-05,0.0,0 STARLINK-4623,1 55315U 23010AY  24042.66318945  .00001358  00000-0  12157-3 0  9995,2 55315  70.0008 133.2037 0002792 265.5868  94.4972 14.98340945 59573,6950.159,96.106,573.965,570.084,0.0
55315.0,STARLINK-4623,PAYLOAD,2024-02-12 11:08:36,14.98332899,0.0002743,70.001,131.1837,262.2974,97.7873,8.6237e-05,9.36e-06,0.0,0 STARLINK-4623,1 55315U 23010AY  24043.46431274  .00000936  00000-0  86237-4 0  9997,2 55315  70.0010 131.1837 0002743 262.2974  97.7873 14.98332899 59697,6950.184,96.107,573.955,570.142,0.0
55315.0,STARLINK-4623,PAYLOAD,2024-02-12 14:20:52,14.98333868,0.0002657,70.0011,130.8469,264.1374,95.9483,0.00010654,1.179e-05,0.0,0 STARLINK-4623,1 55315U 23010AY  24043.59783169  .00001179  00000-0  10654-3 0  9993,2 55315  70.0011 130.8469 0002657 264.1374  95.9483 14.98333868 60005,6950.181,96.107,573.893,570.199,0.0
55315.0,STARLINK-4623,PAYLOAD,2024-02-12 15:57:00,14.98335253,0.0002644,70.0013,130.6788,264.7878,95.2979,0.00012309,1.376e-05,0.0,0 STARLINK-4623,1 55315U 23010AY  24043.66459014  .00001376  00000-0  12309-3 0  9998,2 55315  70.0013 130.6788 0002644 264.7878  95.2979 14.98335253 60014,6950.177,96.107,573.879,570.204,0.0
55315.0,STARLINK-4623,PAYLOAD,2024-02-13 11:10:38,14.98325977,0.000227,70.002,128.6601,256.5298,103.5608,-0.0001124,-1.434e-05,0.0,0 STARLINK-4623,1 55315U 23010AY  24044.46572172 -.00001434  00000-0 -11240-3 0  9998,2 55315  70.0020 128.6601 0002270 256.5298 103.5608 14.98325977 59846,6950.205,96.107,573.648,570.493,0.0
55315.0,STARLINK-4623,PAYLOAD,2024-02-13 14:22:54,14.98324748,0.0002336,70.0019,128.3237,260.5186,99.5709,-0.00011651,-1.483e-05,0.0,0 STARLINK-4623,1 55315U 23010AY  24044.59924303 -.00001483  00000-0 -11651-3 0  9999,2 55315  70.0019 128.3237 0002336 260.5186  99.5709 14.98324748 60157,6950.209,96.107,573.698,570.451,0.0
55315.0,STARLINK-4623,PAYLOAD,2024-02-13 15:59:02,14.98325534,0.0002355,70.0019,128.1552,260.0078,100.0816,-0.00010652,-1.363e-05,0.0,0 STARLINK-4623,1 55315U 23010AY  24044.66600232 -.00001363  00000-0 -10652-3 0  9996,2 55315  70.0019 128.1552 0002355 260.0078 100.0816 14.98325534 60163,6950.207,96.107,573.708,570.435,0.0
55315.0,STARLINK-4623,PAYLOAD,2024-02-14 04:48:06,14.98330894,0.0002644,70.0005,126.8068,261.2214,98.8645,-4.9084e-05,-6.79e-06,0.0,0 STARLINK-4623,1 55315U 23010AY  24045.20007584 -.00000679  00000-0 -49084-4 0  9999,2 55315  70.0005 126.8068 0002644 261.2214  98.8645 14.98330894 59955,6950.19,96.107,573.893,570.217,0.0
55315.0,STARLINK-4623,PAYLOAD,2024-02-14 14:24:54,14.98333983,0.0002622,70.0007,125.7974,267.0487,93.0372,4.0124e-05,3.86e-06,0.0,0 STARLINK-4623,1 55315U 23010AY  24045.60063106  .00000386  00000-0  40124-4 0  9994,2 55315  70.0007 125.7974 0002622 267.0487  93.0372 14.98333983 60300,6950.181,96.107,573.868,570.223,0.0
55315.0,STARLINK-4623,PAYLOAD,2024-02-14 22:25:35,14.98333039,0.0002633,70.0008,124.9553,273.4264,86.6593,-7.3986e-05,-9.76e-06,0.0,0 STARLINK-4623,1 55315U 23010AY  24045.93443414 -.00000976  00000-0 -73986-4 0  9993,2 55315  70.0008 124.9553 0002633 273.4264  86.6593 14.98333039 60351,6950.183,96.107,573.878,570.219,0.0
55315.0,STARLINK-4623,PAYLOAD,2024-02-15 11:14:40,14.98318464,0.0002538,70.001,123.6094,270.9716,89.1152,-5.646e-06,-1.6e-06,0.0,0 STARLINK-4623,1 55315U 23010AY  24046.46852376 -.00000160  00000-0 -56460-5 0  9997,2 55315  70.0010 123.6094 0002538 270.9716  89.1152 14.98318464 60149,6950.229,96.108,573.858,570.33,0.0
